start=new Date('2022-06-29T00:00:00.000Z').valueOf();
sats=[{"TLE_LINE2":"2 47657  53.0545  11.4830 0001337  85.8709 274.2432 15.06395630 76523","SEMIMAJOR_AXIS":"6925.362","GP_ID":"207059552","OBJECT_TYPE":"PAYLOAD","TLE_LINE1":"1 47657U 21012AP  22179.80847111 -.00001075  00000-0 -53293-4 0  9997","LAUNCH_DATE":"2021-02-16","MEAN_ANOMALY":"274.2432","OBJECT_NAME":"STARLINK-2041","RCS_SIZE":"LARGE","INCLINATION":"53.0545","APOAPSIS":"548.153","REV_AT_EPOCH":"7652","DECAY_DATE":null,"COUNTRY_CODE":"US","BSTAR":"-0.00005329300000","NORAD_CAT_ID":"47657","PERIOD":"95.592","SITE":"AFETR","RA_OF_ASC_NODE":"11.4830","MEAN_MOTION_DOT":"-0.00001075","ELEMENT_SET_NO":"999","TIME_SYSTEM":"UTC","MEAN_MOTION_DDOT":"0.0000000000000","CLASSIFICATION_TYPE":"U","CENTER_NAME":"EARTH","OBJECT_ID":"2021-012AP","FILE":"3504942","ARG_OF_PERICENTER":"85.8709","ECCENTRICITY":"0.00013370","EPOCH":"2022-06-28T19:24:11.903904","MEAN_MOTION":"15.06395630","MEAN_ELEMENT_THEORY":"SGP4","EPHEMERIS_TYPE":"0","PERIAPSIS":"546.301","REF_FRAME":"TEME"},{"ECCENTRICITY":"0.00013900","EPOCH":"2022-06-28T19:13:34.830048","MEAN_MOTION":"15.06397864","MEAN_ELEMENT_THEORY":"SGP4","EPHEMERIS_TYPE":"0","PERIAPSIS":"546.257","REF_FRAME":"TEME","RA_OF_ASC_NODE":"11.5110","SITE":"AFETR","MEAN_MOTION_DOT":"0.00000561","ELEMENT_SET_NO":"999","TIME_SYSTEM":"UTC","MEAN_MOTION_DDOT":"0.0000000000000","CENTER_NAME":"EARTH","CLASSIFICATION_TYPE":"U","OBJECT_ID":"2021-012AQ","FILE":"3504942","ARG_OF_PERICENTER":"82.2403","APOAPSIS":"548.183","REV_AT_EPOCH":"7654","DECAY_DATE":null,"COUNTRY_CODE":"US","BSTAR":"0.00005653800000","NORAD_CAT_ID":"47658","PERIOD":"95.592","SEMIMAJOR_AXIS":"6925.355","TLE_LINE2":"2 47658  53.0567  11.5110 0001390  82.2403 277.8744 15.06397864 76549","GP_ID":"207058809","OBJECT_TYPE":"PAYLOAD","TLE_LINE1":"1 47658U 21012AQ  22179.80109757  .00000561  00000-0  56538-4 0  9997","LAUNCH_DATE":"2021-02-16","MEAN_ANOMALY":"277.8744","OBJECT_NAME":"STARLINK-2042","RCS_SIZE":"LARGE","INCLINATION":"53.0567"},{"ARG_OF_PERICENTER":"75.8445","OBJECT_ID":"2021-012AR","FILE":"3504942","MEAN_MOTION_DDOT":"0.0000000000000","CLASSIFICATION_TYPE":"U","CENTER_NAME":"EARTH","TIME_SYSTEM":"UTC","ELEMENT_SET_NO":"999","SITE":"AFETR","RA_OF_ASC_NODE":"252.2924","MEAN_MOTION_DOT":"-0.00001304","REF_FRAME":"TEME","PERIAPSIS":"546.334","EPHEMERIS_TYPE":"0","MEAN_ELEMENT_THEORY":"SGP4","MEAN_MOTION":"15.06385103","EPOCH":"2022-06-28T15:04:08.315328","ECCENTRICITY":"0.00013360","INCLINATION":"53.0551","OBJECT_NAME":"STARLINK-2043","RCS_SIZE":"LARGE","MEAN_ANOMALY":"284.2693","OBJECT_TYPE":"PAYLOAD","TLE_LINE1":"1 47659U 21012AR  22179.62787402 -.00001304  00000-0 -68702-4 0  9991","LAUNCH_DATE":"2021-02-16","TLE_LINE2":"2 47659  53.0551 252.2924 0001336  75.8445 284.2693 15.06385103 78151","SEMIMAJOR_AXIS":"6925.394","GP_ID":"207058556","PERIOD":"95.593","BSTAR":"-0.00006870200000","NORAD_CAT_ID":"47659","DECAY_DATE":null,"COUNTRY_CODE":"US","APOAPSIS":"548.184","REV_AT_EPOCH":"7815"},{"REV_AT_EPOCH":"7828","APOAPSIS":"548.190","PERIOD":"95.592","NORAD_CAT_ID":"47660","BSTAR":"-0.00003215000000","COUNTRY_CODE":"US","DECAY_DATE":null,"RCS_SIZE":"LARGE","OBJECT_NAME":"STARLINK-2044","MEAN_ANOMALY":"296.1293","LAUNCH_DATE":"2021-02-16","TLE_LINE1":"1 47660U 21012AS  22179.58094229 -.00000760  00000-0 -32150-4 0  9999","OBJECT_TYPE":"PAYLOAD","GP_ID":"207059309","TLE_LINE2":"2 47660  53.0566 243.1242 0001389  63.9838 296.1293 15.06395414 78281","SEMIMAJOR_AXIS":"6925.363","INCLINATION":"53.0566","EPOCH":"2022-06-28T13:56:33.413856","ECCENTRICITY":"0.00013890","PERIAPSIS":"546.266","REF_FRAME":"TEME","EPHEMERIS_TYPE":"0","MEAN_ELEMENT_THEORY":"SGP4","MEAN_MOTION":"15.06395414","TIME_SYSTEM":"UTC","ELEMENT_SET_NO":"999","MEAN_MOTION_DOT":"-0.00000760","SITE":"AFETR","RA_OF_ASC_NODE":"243.1242","ARG_OF_PERICENTER":"63.9838","FILE":"3504942","OBJECT_ID":"2021-012AS","CENTER_NAME":"EARTH","CLASSIFICATION_TYPE":"U","MEAN_MOTION_DDOT":"0.0000000000000"},{"FILE":"3504942","OBJECT_ID":"2021-012AT","CLASSIFICATION_TYPE":"U","CENTER_NAME":"EARTH","MEAN_MOTION_DDOT":"0.0000000000000","ARG_OF_PERICENTER":"67.7644","MEAN_MOTION_DOT":"-0.00001197","RA_OF_ASC_NODE":"351.3723","SITE":"AFETR","TIME_SYSTEM":"UTC","ELEMENT_SET_NO":"999","EPHEMERIS_TYPE":"0","MEAN_MOTION":"15.06386214","MEAN_ELEMENT_THEORY":"SGP4","REF_FRAME":"TEME","PERIAPSIS":"546.143","EPOCH":"2022-06-28T19:58:42.474720","ECCENTRICITY":"0.00016070","INCLINATION":"53.0582","LAUNCH_DATE":"2021-02-16","OBJECT_TYPE":"PAYLOAD","TLE_LINE1":"1 47661U 21012AT  22179.83243605 -.00001197  00000-0 -61475-4 0  9999","GP_ID":"207060053","SEMIMAJOR_AXIS":"6925.391","TLE_LINE2":"2 47661  53.0582 351.3723 0001607  67.7644 292.3515 15.06386214 76793","RCS_SIZE":"LARGE","OBJECT_NAME":"STARLINK-2051","MEAN_ANOMALY":"292.3515","NORAD_CAT_ID":"47661","BSTAR":"-0.00006147500000","COUNTRY_CODE":"US","DECAY_DATE":null,"PERIOD":"95.593","REV_AT_EPOCH":"7679","APOAPSIS":"548.369"},{"GP_ID":"207058309","SEMIMAJOR_AXIS":"6925.343","TLE_LINE2":"2 47662  53.0567 351.7574 0001577  61.6294 298.4854 15.06401964 76800","LAUNCH_DATE":"2021-02-16","OBJECT_TYPE":"PAYLOAD","TLE_LINE1":"1 47662U 21012AU  22179.74670231 -.00000507  00000-0 -15120-4 0  9999","MEAN_ANOMALY":"298.4854","RCS_SIZE":"LARGE","OBJECT_NAME":"STARLINK-2052","INCLINATION":"53.0567","REV_AT_EPOCH":"7680","APOAPSIS":"548.300","COUNTRY_CODE":"US","DECAY_DATE":null,"NORAD_CAT_ID":"47662","BSTAR":"-0.00001512000000","PERIOD":"95.592","MEAN_MOTION_DOT":"-0.00000507","SITE":"AFETR","RA_OF_ASC_NODE":"351.7574","ELEMENT_SET_NO":"999","TIME_SYSTEM":"UTC","CLASSIFICATION_TYPE":"U","CENTER_NAME":"EARTH","MEAN_MOTION_DDOT":"0.0000000000000","FILE":"3504942","OBJECT_ID":"2021-012AU","ARG_OF_PERICENTER":"61.6294","ECCENTRICITY":"0.00015770","EPOCH":"2022-06-28T17:55:15.079584","MEAN_MOTION":"15.06401964","MEAN_ELEMENT_THEORY":"SGP4","EPHEMERIS_TYPE":"0","PERIAPSIS":"546.115","REF_FRAME":"TEME"},{"ECCENTRICITY":"0.00016360","EPOCH":"2022-06-28T16:15:48.569472","MEAN_MOTION":"15.06406926","MEAN_ELEMENT_THEORY":"SGP4","EPHEMERIS_TYPE":"0","PERIAPSIS":"546.059","REF_FRAME":"TEME","MEAN_MOTION_DOT":"-0.00001223","RA_OF_ASC_NODE":"272.3763","SITE":"AFETR","ELEMENT_SET_NO":"999","TIME_SYSTEM":"UTC","CLASSIFICATION_TYPE":"U","CENTER_NAME":"EARTH","MEAN_MOTION_DDOT":"0.0000000000000","FILE":"3504942","OBJECT_ID":"2021-012AV","ARG_OF_PERICENTER":"57.7999","REV_AT_EPOCH":"7738","APOAPSIS":"548.325","COUNTRY_CODE":"US","DECAY_DATE":null,"NORAD_CAT_ID":"47663","BSTAR":"-0.00006322800000","PERIOD":"95.592","GP_ID":"207059057","SEMIMAJOR_AXIS":"6925.327","TLE_LINE2":"2 47663  53.0536 272.3763 0001636  57.7999 302.3149 15.06406926 77388","LAUNCH_DATE":"2021-02-16","TLE_LINE1":"1 47663U 21012AV  22179.67764548 -.00001223  00000-0 -63228-4 0  9995","OBJECT_TYPE":"PAYLOAD","MEAN_ANOMALY":"302.3149","RCS_SIZE":"LARGE","OBJECT_NAME":"STARLINK-2053","INCLINATION":"53.0536"},{"REV_AT_EPOCH":"7680","APOAPSIS":"548.339","PERIOD":"95.592","NORAD_CAT_ID":"47664","BSTAR":"-0.00001190600000","COUNTRY_CODE":"US","DECAY_DATE":null,"RCS_SIZE":"LARGE","OBJECT_NAME":"STARLINK-2054","MEAN_ANOMALY":"287.9290","LAUNCH_DATE":"2021-02-16","OBJECT_TYPE":"PAYLOAD","TLE_LINE1":"1 47664U 21012AW  22179.74764548 -.00000459  00000-0 -11906-4 0  9990","GP_ID":"207059810","TLE_LINE2":"2 47664  53.0566 351.7541 0001645  72.1879 287.9290 15.06404389 76808","SEMIMAJOR_AXIS":"6925.335","INCLINATION":"53.0566","EPOCH":"2022-06-28T17:56:36.569472","ECCENTRICITY":"0.00016450","PERIAPSIS":"546.061","REF_FRAME":"TEME","EPHEMERIS_TYPE":"0","MEAN_MOTION":"15.06404389","MEAN_ELEMENT_THEORY":"SGP4","TIME_SYSTEM":"UTC","ELEMENT_SET_NO":"999","MEAN_MOTION_DOT":"-0.00000459","SITE":"AFETR","RA_OF_ASC_NODE":"351.7541","ARG_OF_PERICENTER":"72.1879","FILE":"3504942","OBJECT_ID":"2021-012AW","CLASSIFICATION_TYPE":"U","CENTER_NAME":"EARTH","MEAN_MOTION_DDOT":"0.0000000000000"},{"CLASSIFICATION_TYPE":"U","CENTER_NAME":"EARTH","MEAN_MOTION_DDOT":"0.0000000000000","FILE":"3504942","OBJECT_ID":"2021-012AX","ARG_OF_PERICENTER":"88.7304","MEAN_MOTION_DOT":"-0.00000649","SITE":"AFETR","RA_OF_ASC_NODE":"346.2890","ELEMENT_SET_NO":"999","TIME_SYSTEM":"UTC","MEAN_ELEMENT_THEORY":"SGP4","MEAN_MOTION":"15.06395717","EPHEMERIS_TYPE":"0","REF_FRAME":"TEME","PERIAPSIS":"546.395","ECCENTRICITY":"0.00012010","EPOCH":"2022-06-28T20:39:10.315584","INCLINATION":"53.0560","GP_ID":"207059553","TLE_LINE2":"2 47665  53.0560 346.2890 0001201  88.7304 271.3822 15.06395717 76883","SEMIMAJOR_AXIS":"6925.362","LAUNCH_DATE":"2021-02-16","OBJECT_TYPE":"PAYLOAD","TLE_LINE1":"1 47665U 21012AX  22179.86053606 -.00000649  00000-0 -24714-4 0  9992","MEAN_ANOMALY":"271.3822","RCS_SIZE":"LARGE","OBJECT_NAME":"STARLINK-2056","COUNTRY_CODE":"US","DECAY_DATE":null,"NORAD_CAT_ID":"47665","BSTAR":"-0.00002471400000","PERIOD":"95.592","REV_AT_EPOCH":"7688","APOAPSIS":"548.058"},{"TIME_SYSTEM":"UTC","ELEMENT_SET_NO":"999","MEAN_MOTION_DOT":"-0.00000952","SITE":"AFETR","RA_OF_ASC_NODE":"346.6124","ARG_OF_PERICENTER":"67.0277","FILE":"3504942","OBJECT_ID":"2021-012AY","CLASSIFICATION_TYPE":"U","CENTER_NAME":"EARTH","MEAN_MOTION_DDOT":"0.0000000000000","EPOCH":"2022-06-28T20:33:55.226016","ECCENTRICITY":"0.00014440","REF_FRAME":"TEME","PERIAPSIS":"546.232","EPHEMERIS_TYPE":"0","MEAN_MOTION":"15.06393906","MEAN_ELEMENT_THEORY":"SGP4","RCS_SIZE":"LARGE","OBJECT_NAME":"STARLINK-2057","MEAN_ANOMALY":"293.0864","LAUNCH_DATE":"2021-02-16","TLE_LINE1":"1 47666U 21012AY  22179.85688919 -.00000952  00000-0 -45019-4 0  9991","OBJECT_TYPE":"PAYLOAD","GP_ID":"207058810","TLE_LINE2":"2 47666  53.0556 346.6124 0001444  67.0277 293.0864 15.06393906 76886","SEMIMAJOR_AXIS":"6925.367","INCLINATION":"53.0556","REV_AT_EPOCH":"7688","APOAPSIS":"548.232","PERIOD":"95.593","NORAD_CAT_ID":"47666","BSTAR":"-0.00004501900000","COUNTRY_CODE":"US","DECAY_DATE":null}];
